2018-099A               
1 43758U 18099A   18339.84363080 -.00002408  00000-0 -21349-3 0  9998
2 43758  97.7701  48.9743 0011211 251.7951 203.2309 14.95240426   311
2018-099B               
1 43759U 18099B   18339.04167362 -.00000058  00000-0  00000+0 0  9991
2 43759  97.7666  48.1833 0012905 256.6096 203.3233 14.95048011   198
2018-099C               
1 43760U 18099C   18339.75938225 -.00000058  00000-0  00000+0 0  9995
2 43760  97.7693  48.8934 0012157 253.6771 106.3101 14.94987145   303
2018-099D               
1 43761U 18099D   18339.62555799  .00000107  00000-0  15093-4 0  9990
2 43761  97.7700  48.7616 0012391 251.1738 108.8155 14.94954902   272
2018-099E               
1 43762U 18099E   18339.84417537  .00006997  00000-0  63813-3 0  9997
2 43762  97.7650  49.0119 0011551 265.5664 193.2228 14.95367262   315
2018-099F               
1 43763U 18099F   18339.75876083 -.00000058  00000-0  00000+0 0  9991
2 43763  97.7691  48.8947 0011710 256.1240 103.8693 14.95461628   303
2018-099G               
1 43764U 18099G   18339.75797278 -.00000059  00000-0  00000+0 0  9991
2 43764  97.7712  48.8929 0014152 261.7075  98.2521 14.96094286   297
2018-099H               
1 43765U 18099H   18339.75815080 -.00000059  00000-0  00000+0 0  9994
2 43765  97.7688  48.8979 0013355 269.9216  90.0520 14.95951194   294
2018-099J               
1 43766U 18099J   18339.82703591 -.00000058  00000-0  00000+0 0  9995
2 43766  97.7679  48.9707 0009968 243.1717 116.8685 14.94414021   314
2018-099K               
1 43767U 18099K   18339.89391349  .00003021  00000-0  28500-3 0  9998
2 43767  97.7712  49.0282 0009706 251.1039 108.9063 14.94492860   329
2018-099L               
1 43768U 18099L   18339.76007209 -.00008982  00000-0 -82931-3 0  9995
2 43768  97.7700  48.8938 0009685 253.5016 106.5054 14.94407675    20
2018-099S               
1 43774U 18099S   18339.89354746  .00000485  00000-0  49943-4 0  9992
2 43774  97.7736  49.0247 0011038 250.1788 109.8235 14.94763969   316
2018-099T               
1 43775U 18099T   18339.84419576  .00010493  00000-0  96607-3 0  9999
2 43775  97.7704  48.9824 0013230 253.4329 201.7374 14.94852554   296
2018-099U               
1 43776U 18099U   18339.64559505  .00007309  00000-0  67481-3 0  9995
2 43776  97.7711  48.7875 0013136 253.7982 213.2961 14.94851642   266
